[{"OBJECT_NAME":"STARLINK-33857","OBJECT_ID":"2025-113AB","EPOCH":"2026-03-09T19:03:26.282880","MEAN_MOTION":15.30220343,"ECCENTRICITY":0.00019382,"INCLINATION":53.1599,"RA_OF_ASC_NODE":90.4571,"ARG_OF_PERICENTER":107.8257,"MEAN_ANOMALY":252.2955,"EPHEMERIS_TYPE":0,"CLASSIFICATION_TYPE":"U","NORAD_CAT_ID":64195,"ELEMENT_SET_NO":999,"REV_AT_EPOCH":4504,"BSTAR":0.00083378978,"MEAN_MOTION_DOT":0.00024432,"MEAN_MOTION_DDOT":0},{"OBJECT_NAME":"FENGYUN 1C DEB","OBJECT_ID":"1999-025CUF","EPOCH":"2026-03-09T01:34:38.628768","MEAN_MOTION":15.17132493,"ECCENTRICITY":0.01273829,"INCLINATION":98.8955,"RA_OF_ASC_NODE":293.2327,"ARG_OF_PERICENTER":89.1897,"MEAN_ANOMALY":272.3925,"EPHEMERIS_TYPE":0,"CLASSIFICATION_TYPE":"U","NORAD_CAT_ID":32185,"ELEMENT_SET_NO":999,"REV_AT_EPOCH":96318,"BSTAR":0.0036969643,"MEAN_MOTION_DOT":0.00091378,"MEAN_MOTION_DDOT":0}]
